[
  {
    "OBJECT_NAME": "STARLINK-32384",
    "OBJECT_ID": "24224H",
    "EPOCH": "2025-11-10T17:14:52.656864",
    "MEAN_MOTION": 15.27591665,
    "ECCENTRICITY": 0.0002426,
    "INCLINATION": 43.0013,
    "RA_OF_ASC_NODE": 110.1004,
    "ARG_OF_PERICENTER": 273.6067,
    "MEAN_ANOMALY": 86.4508,
    "EPHEMERIS_TYPE": 0,
    "CLASSIFICATION_TYPE": "U",
    "NORAD_CAT_ID": 62146,
    "ELEMENT_SET_NO": 999,
    "REV_AT_EPOCH": 5428,
    "BSTAR": 0.0012605,
    "MEAN_MOTION_DOT": 0.000346,
    "MEAN_MOTION_DDOT": 0.0,
    "TLE_LINE1": "1 62146U 24224H   25314.71866501  .00034600  00000+0  12605-2 0  9990",
    "TLE_LINE2": "2 62146  43.0013 110.1004 0002426 273.6067  86.4508 15.27591665 54281",
    "COMMENT": "Grouped by shell and plane from TLE"
  },
  {
    "OBJECT_NAME": "STARLINK-32479",
    "OBJECT_ID": "24224K",
    "EPOCH": "2025-11-10T10:43:27.599808",
    "MEAN_MOTION": 15.27607999,
    "ECCENTRICITY": 0.0001856,
    "INCLINATION": 43.0026,
    "RA_OF_ASC_NODE": 111.501,
    "ARG_OF_PERICENTER": 274.4389,
    "MEAN_ANOMALY": 85.625,
    "EPHEMERIS_TYPE": 0,
    "CLASSIFICATION_TYPE": "U",
    "NORAD_CAT_ID": 62148,
    "ELEMENT_SET_NO": 999,
    "REV_AT_EPOCH": 5418,
    "BSTAR": 0.0018927,
    "MEAN_MOTION_DOT": 0.00052237,
    "MEAN_MOTION_DDOT": 0.0,
    "TLE_LINE1": "1 62148U 24224K   25314.44684722  .00052237  00000+0  18927-2 0  9994",
    "TLE_LINE2": "2 62148  43.0026 111.5010 0001856 274.4389  85.6250 15.27607999 54183",
    "COMMENT": "Grouped by shell and plane from TLE"
  },
  {
    "OBJECT_NAME": "STARLINK-32623",
    "OBJECT_ID": "24224P",
    "EPOCH": "2025-11-11T03:45:30.976128",
    "MEAN_MOTION": 15.27611596,
    "ECCENTRICITY": 0.0001443,
    "INCLINATION": 43.0028,
    "RA_OF_ASC_NODE": 110.8327,
    "ARG_OF_PERICENTER": 278.5728,
    "MEAN_ANOMALY": 81.496,
    "EPHEMERIS_TYPE": 0,
    "CLASSIFICATION_TYPE": "U",
    "NORAD_CAT_ID": 62152,
    "ELEMENT_SET_NO": 999,
    "REV_AT_EPOCH": 5425,
    "BSTAR": 0.0012376,
    "MEAN_MOTION_DOT": 0.00033984,
    "MEAN_MOTION_DDOT": 0.0,
    "TLE_LINE1": "1 62152U 24224P   25315.15660852  .00033984  00000+0  12376-2 0  9996",
    "TLE_LINE2": "2 62152  43.0028 110.8327 0001443 278.5728  81.4960 15.27611596 54255",
    "COMMENT": "Grouped by shell and plane from TLE"
  },
  {
    "OBJECT_NAME": "STARLINK-32625",
    "OBJECT_ID": "24224R",
    "EPOCH": "2025-11-10T17:35:13.850016",
    "MEAN_MOTION": 15.27614433,
    "ECCENTRICITY": 5.53e-05,
    "INCLINATION": 42.9971,
    "RA_OF_ASC_NODE": 110.2016,
    "ARG_OF_PERICENTER": 250.7397,
    "MEAN_ANOMALY": 109.3394,
    "EPHEMERIS_TYPE": 0,
    "CLASSIFICATION_TYPE": "U",
    "NORAD_CAT_ID": 62154,
    "ELEMENT_SET_NO": 999,
    "REV_AT_EPOCH": 5417,
    "BSTAR": 0.0011435,
    "MEAN_MOTION_DOT": 0.00031373,
    "MEAN_MOTION_DDOT": 0.0,
    "TLE_LINE1": "1 62154U 24224R   25314.73279919  .00031373  00000+0  11435-2 0  9996",
    "TLE_LINE2": "2 62154  42.9971 110.2016 0000553 250.7397 109.3394 15.27614433 54171",
    "COMMENT": "Grouped by shell and plane from TLE"
  },
  {
    "OBJECT_NAME": "STARLINK-32635",
    "OBJECT_ID": "24224S",
    "EPOCH": "2025-11-10T18:14:35.174976",
    "MEAN_MOTION": 15.27613579,
    "ECCENTRICITY": 0.0001225,
    "INCLINATION": 42.9983,
    "RA_OF_ASC_NODE": 117.3327,
    "ARG_OF_PERICENTER": 263.675,
    "MEAN_ANOMALY": 96.3962,
    "EPHEMERIS_TYPE": 0,
    "CLASSIFICATION_TYPE": "U",
    "NORAD_CAT_ID": 62155,
    "ELEMENT_SET_NO": 999,
    "REV_AT_EPOCH": 5404,
    "BSTAR": 0.0032017,
    "MEAN_MOTION_DOT": 0.00089001,
    "MEAN_MOTION_DDOT": 0.0,
    "TLE_LINE1": "1 62155U 24224S   25314.76012934  .00089001  00000+0  32017-2 0  9992",
    "TLE_LINE2": "2 62155  42.9983 117.3327 0001225 263.6750  96.3962 15.27613579 54043",
    "COMMENT": "Grouped by shell and plane from TLE"
  },
  {
    "OBJECT_NAME": "STARLINK-32503",
    "OBJECT_ID": "24224U",
    "EPOCH": "2025-11-11T03:22:51.151584",
    "MEAN_MOTION": 15.27545545,
    "ECCENTRICITY": 0.0001137,
    "INCLINATION": 42.9983,
    "RA_OF_ASC_NODE": 115.0285,
    "ARG_OF_PERICENTER": 276.5162,
    "MEAN_ANOMALY": 83.556,
    "EPHEMERIS_TYPE": 0,
    "CLASSIFICATION_TYPE": "U",
    "NORAD_CAT_ID": 62157,
    "ELEMENT_SET_NO": 999,
    "REV_AT_EPOCH": 5383,
    "BSTAR": 6.6773e-05,
    "MEAN_MOTION_DOT": 1.574e-05,
    "MEAN_MOTION_DDOT": 0.0,
    "TLE_LINE1": "1 62157U 24224U   25315.14086981  .00001574  00000+0  66773-4 0  9997",
    "TLE_LINE2": "2 62157  42.9983 115.0285 0001137 276.5162  83.5560 15.27545545 53830",
    "COMMENT": "Grouped by shell and plane from TLE"
  },
  {
    "OBJECT_NAME": "STARLINK-32508",
    "OBJECT_ID": "24224V",
    "EPOCH": "2025-11-10T12:21:19.978848",
    "MEAN_MOTION": 15.27609013,
    "ECCENTRICITY": 0.0001633,
    "INCLINATION": 43.0024,
    "RA_OF_ASC_NODE": 111.1469,
    "ARG_OF_PERICENTER": 259.5972,
    "MEAN_ANOMALY": 100.4696,
    "EPHEMERIS_TYPE": 0,
    "CLASSIFICATION_TYPE": "U",
    "NORAD_CAT_ID": 62158,
    "ELEMENT_SET_NO": 999,
    "REV_AT_EPOCH": 5425,
    "BSTAR": 0.00086896,
    "MEAN_MOTION_DOT": 0.00023748,
    "MEAN_MOTION_DDOT": 0.0,
    "TLE_LINE1": "1 62158U 24224V   25314.51481457  .00023748  00000+0  86896-3 0  9999",
    "TLE_LINE2": "2 62158  43.0024 111.1469 0001633 259.5972 100.4696 15.27609013 54258",
    "COMMENT": "Grouped by shell and plane from TLE"
  },
  {
    "OBJECT_NAME": "STARLINK-32524",
    "OBJECT_ID": "24224W",
    "EPOCH": "2025-11-10T20:11:22.832736",
    "MEAN_MOTION": 15.27622281,
    "ECCENTRICITY": 0.0002598,
    "INCLINATION": 43.0042,
    "RA_OF_ASC_NODE": 112.7592,
    "ARG_OF_PERICENTER": 270.8499,
    "MEAN_ANOMALY": 89.2055,
    "EPHEMERIS_TYPE": 0,
    "CLASSIFICATION_TYPE": "U",
    "NORAD_CAT_ID": 62159,
    "ELEMENT_SET_NO": 999,
    "REV_AT_EPOCH": 5410,
    "BSTAR": 0.0014328,
    "MEAN_MOTION_DOT": 0.0003943,
    "MEAN_MOTION_DDOT": 0.0,
    "TLE_LINE1": "1 62159U 24224W   25314.84123649  .00039430  00000+0  14328-2 0  9997",
    "TLE_LINE2": "2 62159  43.0042 112.7592 0002598 270.8499  89.2055 15.27622281 54103",
    "COMMENT": "Grouped by shell and plane from TLE"
  },
  {
    "OBJECT_NAME": "STARLINK-32484",
    "OBJECT_ID": "24224X",
    "EPOCH": "2025-11-10T17:33:22.215168",
    "MEAN_MOTION": 15.27562173,
    "ECCENTRICITY": 0.0001443,
    "INCLINATION": 43.001,
    "RA_OF_ASC_NODE": 110.1922,
    "ARG_OF_PERICENTER": 278.0709,
    "MEAN_ANOMALY": 81.9979,
    "EPHEMERIS_TYPE": 0,
    "CLASSIFICATION_TYPE": "U",
    "NORAD_CAT_ID": 62160,
    "ELEMENT_SET_NO": 999,
    "REV_AT_EPOCH": 5428,
    "BSTAR": 0.0011373,
    "MEAN_MOTION_DOT": 0.00031148,
    "MEAN_MOTION_DDOT": 0.0,
    "TLE_LINE1": "1 62160U 24224X   25314.73150712  .00031148  00000+0  11373-2 0  9993",
    "TLE_LINE2": "2 62160  43.0010 110.1922 0001443 278.0709  81.9979 15.27562173 54287",
    "COMMENT": "Grouped by shell and plane from TLE"
  },
  {
    "OBJECT_NAME": "STARLINK-32497",
    "OBJECT_ID": "24224Y",
    "EPOCH": "2025-11-11T03:51:04.311648",
    "MEAN_MOTION": 15.27601168,
    "ECCENTRICITY": 0.0001679,
    "INCLINATION": 43.0028,
    "RA_OF_ASC_NODE": 110.859,
    "ARG_OF_PERICENTER": 286.5306,
    "MEAN_ANOMALY": 73.5362,
    "EPHEMERIS_TYPE": 0,
    "CLASSIFICATION_TYPE": "U",
    "NORAD_CAT_ID": 62161,
    "ELEMENT_SET_NO": 999,
    "REV_AT_EPOCH": 5430,
    "BSTAR": 0.0012720000000000001,
    "MEAN_MOTION_DOT": 0.0003493,
    "MEAN_MOTION_DDOT": 0.0,
    "TLE_LINE1": "1 62161U 24224Y   25315.16046657  .00034930  00000+0  12720-2 0  9993",
    "TLE_LINE2": "2 62161  43.0028 110.8590 0001679 286.5306  73.5362 15.27601168 54307",
    "COMMENT": "Grouped by shell and plane from TLE"
  },
  {
    "OBJECT_NAME": "STARLINK-32526",
    "OBJECT_ID": "24224Z",
    "EPOCH": "2025-11-11T03:56:36.907584",
    "MEAN_MOTION": 15.27600082,
    "ECCENTRICITY": 0.0001979,
    "INCLINATION": 43.0038,
    "RA_OF_ASC_NODE": 110.8854,
    "ARG_OF_PERICENTER": 271.4373,
    "MEAN_ANOMALY": 88.6252,
    "EPHEMERIS_TYPE": 0,
    "CLASSIFICATION_TYPE": "U",
    "NORAD_CAT_ID": 62162,
    "ELEMENT_SET_NO": 999,
    "REV_AT_EPOCH": 5430,
    "BSTAR": 0.001248,
    "MEAN_MOTION_DOT": 0.00034261,
    "MEAN_MOTION_DDOT": 0.0,
    "TLE_LINE1": "1 62162U 24224Z   25315.16431606  .00034261  00000+0  12480-2 0  9996",
    "TLE_LINE2": "2 62162  43.0038 110.8854 0001979 271.4373  88.6252 15.27600082 54301",
    "COMMENT": "Grouped by shell and plane from TLE"
  },
  {
    "OBJECT_NAME": "STARLINK-32774",
    "OBJECT_ID": "25014C",
    "EPOCH": "2025-11-10T12:19:20.394336",
    "MEAN_MOTION": 15.27608454,
    "ECCENTRICITY": 0.0001625,
    "INCLINATION": 43.0002,
    "RA_OF_ASC_NODE": 110.6567,
    "ARG_OF_PERICENTER": 267.186,
    "MEAN_ANOMALY": 92.8806,
    "EPHEMERIS_TYPE": 0,
    "CLASSIFICATION_TYPE": "U",
    "NORAD_CAT_ID": 62737,
    "ELEMENT_SET_NO": 999,
    "REV_AT_EPOCH": 4499,
    "BSTAR": 0.0012313,
    "MEAN_MOTION_DOT": 0.00033806,
    "MEAN_MOTION_DDOT": 0.0,
    "TLE_LINE1": "1 62737U 25014C   25314.51343049  .00033806  00000+0  12313-2 0  9992",
    "TLE_LINE2": "2 62737  43.0002 110.6567 0001625 267.1860  92.8806 15.27608454 44997",
    "COMMENT": "Grouped by shell and plane from TLE"
  },
  {
    "OBJECT_NAME": "STARLINK-32800",
    "OBJECT_ID": "25014J",
    "EPOCH": "2025-11-10T11:56:38.802048",
    "MEAN_MOTION": 15.27619464,
    "ECCENTRICITY": 0.000264,
    "INCLINATION": 43.0034,
    "RA_OF_ASC_NODE": 114.8654,
    "ARG_OF_PERICENTER": 280.4199,
    "MEAN_ANOMALY": 79.6355,
    "EPHEMERIS_TYPE": 0,
    "CLASSIFICATION_TYPE": "U",
    "NORAD_CAT_ID": 62743,
    "ELEMENT_SET_NO": 999,
    "REV_AT_EPOCH": 4494,
    "BSTAR": 0.0014517,
    "MEAN_MOTION_DOT": 0.00039952,
    "MEAN_MOTION_DDOT": 0.0,
    "TLE_LINE1": "1 62743U 25014J   25314.49767132  .00039952  00000+0  14517-2 0  9995",
    "TLE_LINE2": "2 62743  43.0034 114.8654 0002640 280.4199  79.6355 15.27619464 44943",
    "COMMENT": "Grouped by shell and plane from TLE"
  }
]